INMARSAT 6-F1           
1 50319U 21128A   26168.82499145 -.00000177  00000+0  00000+0 0  9991
2 50319   0.0178 324.3736 0000201 317.7302   4.7255  1.00270216 16267
SHIYAN-12 01 (SY-12 01) 
1 50321U 21129A   26168.80373469  .00000079  00000+0  00000+0 0  9993
2 50321   3.6768  79.9013 0003248 285.9957 249.0802  1.00039709 16500
SHIYAN-12 02 (SY-12 02) 
1 50322U 21129B   26168.77196078 -.00000271  00000+0  00000+0 0  9994
2 50322   3.6763  79.9071 0002693  60.0968 133.2903  1.00489217 16506
ZY-1 02E                
1 50465U 21131A   26168.98458213 -.00000187  00000+0 -50225-4 0  9996
2 50465  98.4436 246.0566 0002002 101.1902 258.9509 14.35395929234538
XW-3 (CAS-9)            
1 50466U 21131B   26168.95706122  .00000178  00000+0  68524-4 0  9998
2 50466  98.4987 261.3426 0005395  94.8981 265.2824 14.41357252235220
ONEWEB-0389             
1 50469U 21132A   26168.50246256 -.00000014  00000+0 -69664-4 0  9997
2 50469  87.9130   5.8054 0002155  81.8916 278.2460 13.17648749218125
ONEWEB-0390             
1 50470U 21132B   26168.50415002  .00000004  00000+0 -23106-4 0  9995
2 50470  87.9131   5.8059 0001998  93.9194 266.2166 13.17648679218121
ONEWEB-0391             
1 50471U 21132C   26168.50583846  .00000006  00000+0 -17698-4 0  9999
2 50471  87.9132   5.8153 0002686  84.6408 275.5030 13.17648494218126
ONEWEB-0392             
1 50472U 21132D   26168.53621983 -.00000009  00000+0 -56959-4 0  9995
2 50472  87.9141   5.7776 0002204  82.8987 277.2395 13.17648947218165
ONEWEB-0393             
1 50473U 21132E   26168.51174227 -.00000004  00000+0 -43727-4 0  9992
2 50473  87.9131   5.7996 0002009  84.9644 275.1717 13.17649522218159
ONEWEB-0394             
1 50474U 21132F   26168.93276237  .00000043  00000+0  76324-4 0  9993
2 50474  87.9171 335.2933 0001825  87.7813 272.3528 13.18688249221692
ONEWEB-0395             
1 50475U 21132G   26168.62481482 -.00000420  00000+0 -12221-2 0  9995
2 50475  87.8887  20.9802 0002032  88.9632 271.1729 13.11418578215773
ONEWEB-0396             
1 50476U 21132H   26168.85012791  .00000007  00000+0 -15608-4 0  9998
2 50476  87.9173 335.3226 0001914  87.7940 272.3411 13.18685271221729
ONEWEB-0397             
1 50477U 21132J   26168.86530571  .00000041  00000+0  70142-4 0  9992
2 50477  87.9172 335.3195 0001834  84.6624 275.4718 13.18685527221706
ONEWEB-0398             
1 50478U 21132K   26168.51631247  .00000206  00000+0  54634-3 0  9997
2 50478  87.8892  20.9924 0001963  94.2490 265.8862 13.11414333215651
ONEWEB-0399             
1 50479U 21132L   26168.50275909  .00000539  00000+0  14836-2 0  9994
2 50479  87.8894  21.0060 0002130  74.2449 285.8914 13.11416018215647
ONEWEB-0400             
1 50480U 21132M   26168.84338828 -.00000057  00000+0 -17618-3 0  9992
2 50480  87.9171 335.3137 0001888  98.0636 262.0710 13.18685556221690
ONEWEB-0401             
1 50481U 21132N   26168.88891167  .00000040  00000+0  68235-4 0  9999
2 50481  87.9172 335.3020 0001653  89.2835 270.8487 13.18684812221700
ONEWEB-0402             
1 50482U 21132P   26168.92770027  .00000027  00000+0  36528-4 0  9991
2 50482  87.9171 335.2834 0001490  81.2014 278.9287 13.18686293221737
ONEWEB-0403             
1 50483U 21132Q   26168.87710813  .00000079  00000+0  16873-3 0  9990
2 50483  87.9171 335.3179 0001994  91.0026 269.1335 13.18685286221683
ONEWEB-0404             
1 50484U 21132R   26168.48409978  .00000086  00000+0  20652-3 0  9993
2 50484  87.8889  21.0082 0002133  82.4020 277.7350 13.11419334215738
ONEWEB-0405             
1 50485U 21132S   26168.89060080  .00000068  00000+0  13868-3 0  9997
2 50485  87.9173 335.2998 0002074 105.1570 254.9792 13.18686488222085
ONEWEB-0406             
1 50486U 21132T   26168.88216820  .00000033  00000+0  51952-4 0  9991
2 50486  87.9167 335.3178 0002338  85.6567 274.4832 13.18684922221713
ONEWEB-0407             
1 50487U 21132U   26168.87544202  .00002546  00000+0  64257-2 0  9990
2 50487  87.9173 335.3114 0001699  98.8780 261.2544 13.18674990221654
ONEWEB-0409             
1 50488U 21132V   26168.10091075  .00000130  00000+0  33060-3 0  9998
2 50488  87.8893  21.0724 0002119  85.8977 274.2393 13.11420380215576
ONEWEB-0412             
1 50489U 21132W   26168.93949349  .00000031  00000+0  45655-4 0  9990
2 50489  87.9169 335.3067 0001626  86.2750 273.8569 13.18685352221757
ONEWEB-0413             
1 50490U 21132X   26168.86869286  .00000126  00000+0  28580-3 0  9997
2 50490  87.9161 335.3197 0001550  91.4402 268.6908 13.18687047221687
ONEWEB-0414             
1 50491U 21132Y   26168.92938162  .00000048  00000+0  89107-4 0  9991
2 50491  87.9175 335.2893 0001817  87.1642 272.9698 13.18685712221725
ONEWEB-0417             
1 50492U 21132Z   26168.86193440  .00000017  00000+0  10775-4 0  9998
2 50492  87.9163 335.3223 0002078  90.6338 269.5032 13.18685731221693
ONEWEB-0418             
1 50493U 21132AA  26168.87190080  .00000081  00000+0  17251-3 0  9993
2 50493  87.9170 335.3203 0002156  91.0598 269.0781 13.18685020221754
